NORAD_CAT_ID,OBJECT_NAME,OBJECT_TYPE,EPOCH,MEAN_MOTION,ECCENTRICITY,INCLINATION,RA_OF_ASC_NODE,ARG_OF_PERICENTER,MEAN_ANOMALY,BSTAR,MEAN_MOTION_DOT,MEAN_MOTION_DDOT,TLE_LINE0,TLE_LINE1,TLE_LINE2,SEMIMAJOR_AXIS,PERIOD,APOGEE,PERIGEE,DECAYED
53152.0,STARLINK-4045,PAYLOAD,2022-10-15 22:00:01,15.08811055,0.0001958,53.2129,334.1642,35.6555,236.9753,-0.0015110999999999,-0.00024238,0.0,0 STARLINK-4045,1 53152U 22083W   22288.91668981 -.00024238  00000-0 -15111-2 0  9993,2 53152  53.2129 334.1642 0001958  35.6555 236.9753 15.08811055  1308,6917.969,95.439,541.188,538.479,0.0
53152.0,STARLINK-4045,PAYLOAD,2022-10-16 06:00:00,15.08807061,0.0002061,53.2129,332.6682,39.2207,244.8913,-0.00022358,-3.842e-05,0.0,0 STARLINK-4045,1 53152U 22083W   22289.25001157 -.00003842  00000-0 -22358-3 0  9997,2 53152  53.2129 332.6682 0002061  39.2207 244.8913 15.08807061 14712,6917.981,95.44,541.2719999999998,538.42,0.0
53152.0,STARLINK-4045,PAYLOAD,2022-10-16 14:00:01,15.08787238,0.0002262,53.2132,331.173,35.3226,260.3472,0.0039612,0.0006322999999999,0.0,0 STARLINK-4045,1 53152U 22083W   22289.58334491  .00063230  00000-0  39612-2 0  9998,2 53152  53.2132 331.1730 0002262  35.3226 260.3472 15.08787238  1302,6918.042,95.441,541.472,538.342,0.0
53152.0,STARLINK-4045,PAYLOAD,2022-10-16 22:00:00,15.08802591,0.0002073999999999,53.2135,329.6745,38.8303,268.392,0.0026061,0.0004138999999999,0.0,0 STARLINK-4045,1 53152U 22083W   22289.91667824  .00041390  00000-0  26061-2 0  9991,2 53152  53.2135 329.6745 0002074  38.8303 268.3920 15.08802591  1304,6917.995,95.44,541.295,538.425,0.0
53152.0,STARLINK-4045,PAYLOAD,2022-10-17 06:00:00,15.08848769,0.0002150999999999,53.2141,328.1784,40.0007,278.7868,-0.00054432,-8.943e-05,0.0,0 STARLINK-4045,1 53152U 22083W   22290.25001157 -.00008943  00000-0 -54432-3 0  9994,2 53152  53.2141 328.1784 0002151  40.0007 278.7868 15.08848769 14868,6917.854,95.437,541.207,538.231,0.0
53152.0,STARLINK-4045,PAYLOAD,2022-10-17 06:10:59,15.08819147,0.0002151999999999,53.2123,328.1452,28.8671,331.3627,0.00068327,0.00010597,0.0,0 STARLINK-4045,1 53152U 22083W   22290.25763682  .00010597  00000-0  68327-3 0  9996,2 53152  53.2123 328.1452 0002152  28.8671 331.3627 15.08819147 14870,6917.944,95.439,541.298,538.32,0.0
53152.0,STARLINK-4045,PAYLOAD,2022-10-17 14:00:01,15.08834279,0.0002320999999999,53.2136,326.6831,36.199,294.202,0.0035464,0.00056599,0.0,0 STARLINK-4045,1 53152U 22083W   22290.58334491  .00056599  00000-0  35464-2 0  9991,2 53152  53.2136 326.6831 0002321  36.1990 294.2020 15.08834279  1303,6917.898,95.438,541.369,538.1569999999998,0.0
53152.0,STARLINK-4045,PAYLOAD,2022-10-17 22:00:00,15.08841785,0.0002066999999999,53.2141,325.1847,39.41,302.5924,0.00021991,3.214e-05,0.0,0 STARLINK-4045,1 53152U 22083W   22290.91667824  .00003214  00000-0  21991-3 0  9994,2 53152  53.2141 325.1847 0002067  39.4100 302.5924 15.08841785  1302,6917.875,95.437,541.17,538.31,0.0
53152.0,STARLINK-4045,PAYLOAD,2022-10-18 00:00:00,15.08825874,0.0002032999999999,53.2143,324.8099,40.128,34.7804,0.0022603,0.00035855,0.0,0 STARLINK-4045,1 53152U 22083W   22291.00001157  .00035855  00000-0  22603-2 0  9992,2 53152  53.2143 324.8099 0002033  40.1280  34.7804 15.08825874 14980,6917.924,95.438,541.195,538.382,0.0
53152.0,STARLINK-4045,PAYLOAD,2022-10-18 14:00:01,15.08846058,0.0002223,53.2132,322.194,33.9415,331.2585,-0.00047547,-7.849e-05,0.0,0 STARLINK-4045,1 53152U 22083W   22291.58334491 -.00007849  00000-0 -47547-3 0  9994,2 53152  53.2132 322.1940 0002223  33.9415 331.2585 15.08846058 15074,6917.861999999999,95.437,541.265,538.189,0.0
53152.0,STARLINK-4045,PAYLOAD,2022-10-18 22:00:00,15.08809415,0.0001965,53.2133,320.6958,37.3512,339.4599,0.0032000999999999,0.00050968,0.0,0 STARLINK-4045,1 53152U 22083W   22291.91667824  .00050968  00000-0  32001-2 0  9996,2 53152  53.2133 320.6958 0001965  37.3512 339.4599 15.08809415  1307,6917.974,95.439,541.198,538.479,0.0
53152.0,STARLINK-4045,PAYLOAD,2022-10-19 14:00:01,15.08850235,0.0002189,53.2128,317.7046,33.6568,6.3363,0.00031997,4.809e-05,0.0,0 STARLINK-4045,1 53152U 22083W   22292.58334491  .00004809  00000-0  31997-3 0  9998,2 53152  53.2128 317.7046 0002189  33.6568   6.3363 15.08850235  1300,6917.849,95.437,541.2280000000002,538.2,0.0
53152.0,STARLINK-4045,PAYLOAD,2022-10-19 22:00:00,15.08816971,0.0002038,53.2151,316.2045,36.4251,15.1973,0.0027683,0.00044018,0.0,0 STARLINK-4045,1 53152U 22083W   22292.91667824  .00044018  00000-0  27683-2 0  9996,2 53152  53.2151 316.2045 0002038  36.4251  15.1973 15.08816971  1306,6917.951,95.439,541.226,538.406,0.0
53152.0,STARLINK-4045,PAYLOAD,2022-10-20 14:00:01,15.088568900000002,0.0002182,53.2131,313.2147,33.1473,41.6547,-0.00021348,-3.686e-05,0.0,0 STARLINK-4045,1 53152U 22083W   22293.58334491 -.00003686  00000-0 -21348-3 0  9992,2 53152  53.2131 313.2147 0002182  33.1473  41.6547 15.08856890  1309,6917.829000000002,95.436,541.203,538.184,0.0
53152.0,STARLINK-4045,PAYLOAD,2022-10-20 22:00:00,15.0880897,0.0001908,53.2138,311.7164,37.1646,49.2491,0.0029218,0.0004647999999999,0.0,0 STARLINK-4045,1 53152U 22083W   22293.91667824  .00046480  00000-0  29218-2 0  9998,2 53152  53.2138 311.7164 0001908  37.1646  49.2491 15.08808970  1307,6917.975,95.44,541.16,538.52,0.0
53152.0,STARLINK-4045,PAYLOAD,2022-10-21 14:00:01,15.08852703,0.0002190999999999,53.214,308.7252,32.8873,76.7064,0.00038322,5.818e-05,0.0,0 STARLINK-4045,1 53152U 22083W   22294.58334491  .00005818  00000-0  38322-3 0  9990,2 53152  53.2140 308.7252 0002191  32.8873  76.7064 15.08852703  1307,6917.842,95.437,541.222,538.191,0.0
53152.0,STARLINK-4045,PAYLOAD,2022-10-21 22:00:00,15.08862257,0.0002,53.2154,307.2258,35.624,85.5875,-0.0058413,-0.00092124,0.0,0 STARLINK-4045,1 53152U 22083W   22294.91667824 -.00092124  00000-0 -58413-2 0  9996,2 53152  53.2154 307.2258 0002000  35.6240  85.5875 15.08862257  1303,6917.812,95.436,541.061,538.294,0.0
53152.0,STARLINK-4045,PAYLOAD,2022-10-22 08:00:01,15.08839582,0.000217,53.2133,305.3585,34.3052,191.3867,9.152e-06,-1.43e-06,0.0,0 STARLINK-4045,1 53152U 22083W   22295.33334491 -.00000143  00000-0  91520-5 0  9992,2 53152  53.2133 305.3585 0002170  34.3052 191.3867 15.08839582 15630,6917.882,95.438,541.248,538.245,0.0
53152.0,STARLINK-4045,PAYLOAD,2022-10-22 14:00:01,15.08822395,0.0002253,53.2148,304.2354,31.3687,113.0133,-3.9063e-05,-9.1e-06,0.0,0 STARLINK-4045,1 53152U 22083W   22295.58334491 -.00000910  00000-0 -39063-4 0  9995,2 53152  53.2148 304.2354 0002253  31.3687 113.0133 15.08822395  1301,6917.934,95.439,541.3580000000002,538.241,0.0
53152.0,STARLINK-4045,PAYLOAD,2022-10-22 22:00:00,15.08791696,0.0002051,53.2132,302.7378,33.6325,122.3296,0.0032508,0.00051761,0.0,0 STARLINK-4045,1 53152U 22083W   22295.91667824  .00051761  00000-0  32508-2 0  9994,2 53152  53.2132 302.7378 0002051  33.6325 122.3296 15.08791696  1305,6918.028,95.441,541.312,538.474,0.0
53152.0,STARLINK-4045,PAYLOAD,2022-10-23 00:00:02,15.08806113,0.0002065999999999,53.2134,302.3636,35.5169,213.3921,0.0024299,0.0003856,0.0,0 STARLINK-4045,1 53152U 22083W   22296.00002315  .00038560  00000-0  24299-2 0  9993,2 53152  53.2134 302.3636 0002066  35.5169 213.3921 15.08806113 15732,6917.984,95.44,541.278,538.42,0.0
53152.0,STARLINK-4045,PAYLOAD,2022-10-23 14:00:01,15.08842737,0.0002331999999999,53.2133,299.7461,31.7926,147.3146,0.00018406,2.642e-05,0.0,0 STARLINK-4045,1 53152U 22083W   22296.58334491  .00002642  00000-0  18406-3 0  9995,2 53152  53.2133 299.7461 0002332  31.7926 147.3146 15.08842737  1306,6917.871999999999,95.437,541.35,538.124,0.0
53152.0,STARLINK-4045,PAYLOAD,2022-10-23 22:00:00,15.088347099999998,0.0002145,53.2135,298.248,35.1765,155.5331,0.001739,0.00027493,0.0,0 STARLINK-4045,1 53152U 22083W   22296.91667824  .00027493  00000-0  17390-2 0  9992,2 53152  53.2135 298.2480 0002145  35.1765 155.5331 15.08834710  1303,6917.897,95.438,541.245,538.278,0.0
53152.0,STARLINK-4045,PAYLOAD,2022-10-24 14:00:01,15.08857771,0.000222,53.2137,295.2561,29.5383,184.3945,-0.0024824,-0.000396,0.0,0 STARLINK-4045,1 53152U 22083W   22297.58334491 -.00039600  00000-0 -24824-2 0  9992,2 53152  53.2137 295.2561 0002220  29.5383 184.3945 15.08857771  1302,6917.826,95.436,541.227,538.155,0.0
53152.0,STARLINK-4045,PAYLOAD,2022-10-24 16:00:00,15.08853403,0.0002158,53.2138,294.8815,30.054,276.781,-0.0025281999999999,-0.00040316,0.0,0 STARLINK-4045,1 53152U 22083W   22297.66667824 -.00040316  00000-0 -25282-2 0  9995,2 53152  53.2138 294.8815 0002158  30.0540 276.7810 15.08853403 15986,6917.839,95.437,541.197,538.212,0.0
53152.0,STARLINK-4045,PAYLOAD,2022-10-24 22:00:00,15.08818321,0.0002031,53.2139,293.758,32.9946,192.5418,0.0028585,0.00045472,0.0,0 STARLINK-4045,1 53152U 22083W   22297.91667824  .00045472  00000-0  28585-2 0  9998,2 53152  53.2139 293.7580 0002031  32.9946 192.5418 15.08818321  1305,6917.946999999999,95.439,541.217,538.4069999999998,0.0
53152.0,STARLINK-4045,PAYLOAD,2022-10-25 06:00:00,15.08849366,0.0002226,53.214,292.263,31.3815,205.7432,-0.00081776,-0.00013283,0.0,0 STARLINK-4045,1 53152U 22083W   22298.25001157 -.00013283  00000-0 -81776-3 0  9996,2 53152  53.2140 292.2630 0002226  31.3815 205.7432 15.08849366 16077,6917.852,95.437,541.257,538.177,0.0
53152.0,STARLINK-4045,PAYLOAD,2022-10-25 14:00:01,15.08858514,0.0002201999999999,53.214,290.7661,29.1099,219.6131,-0.0031135,-0.00049526,0.0,0 STARLINK-4045,1 53152U 22083W   22298.58334491 -.00049526  00000-0 -31135-2 0  9994,2 53152  53.2140 290.7661 0002202  29.1099 219.6131 15.08858514  1302,6917.824000000001,95.436,541.212,538.165,0.0
53152.0,STARLINK-4045,PAYLOAD,2022-10-25 22:00:01,15.088178400000002,0.0002005999999999,53.2142,289.2681,32.818000000000005,227.5692,0.0028211,0.00044869,0.0,0 STARLINK-4045,1 53152U 22083W   22298.91668981  .00044869  00000-0  28211-2 0  9999,2 53152  53.2142 289.2681 0002006  32.8180 227.5692 15.08817840  1300,6917.948,95.439,541.201,538.425,0.0
